NORAD_CAT_ID,OBJECT_NAME,OBJECT_TYPE,EPOCH,MEAN_MOTION,ECCENTRICITY,INCLINATION,RA_OF_ASC_NODE,ARG_OF_PERICENTER,MEAN_ANOMALY,BSTAR,MEAN_MOTION_DOT,MEAN_MOTION_DDOT,TLE_LINE0,TLE_LINE1,TLE_LINE2,SEMIMAJOR_AXIS,PERIOD,APOGEE,PERIGEE,DECAYED
49450.0,STARLINK-3127,PAYLOAD,2023-05-28 04:07:04,15.08841006,0.0001365,53.2155,102.4567,109.9197,250.1942,-3.7846e-05,-8.9e-06,0.0,0 STARLINK-3127,1 49450U 21104AU  23148.17158494 -.00000890  00000-0 -37846-4 0  9998,2 49450  53.2155 102.4567 0001365 109.9197 250.1942 15.08841006 86382,6917.877,95.437,540.687,538.798,0.0
49450.0,STARLINK-3127,PAYLOAD,2023-05-29 05:33:14,15.08843373,0.0001304,53.2158,97.6988,108.3742,251.7392,0.00021631,3.157e-05,0.0,0 STARLINK-3127,1 49450U 21104AU  23149.23142091  .00003157  00000-0  21631-3 0  9993,2 49450  53.2158  97.6988 0001304 108.3742 251.7392 15.08843373 86542,6917.87,95.437,540.637,538.833,0.0
49450.0,STARLINK-3127,PAYLOAD,2023-05-30 00:37:53,15.08833232,0.0001596,53.216,94.1309,132.9156,227.197,7.1309e-05,8.47e-06,0.0,0 STARLINK-3127,1 49450U 21104AU  23150.02631229  .00000847  00000-0  71309-4 0  9999,2 49450  53.2160  94.1309 0001596 132.9156 227.1970 15.08833232 86664,6917.901,95.438,540.87,538.662,0.0
49450.0,STARLINK-3127,PAYLOAD,2023-05-30 05:24:02,15.08836576,0.0001558,53.2164,93.2314,121.8848,238.2296,-1.8908e-05,-5.89e-06,0.0,0 STARLINK-3127,1 49450U 21104AU  23150.22503161 -.00000589  00000-0 -18908-4 0  9995,2 49450  53.2164  93.2314 0001558 121.8848 238.2296 15.08836576 85888,6917.891,95.438,540.834,538.678,0.0
49450.0,STARLINK-3127,PAYLOAD,2023-05-31 02:04:03,15.08845556,0.0001199,53.2163,89.3718,95.5968,264.5161,4.9134e-05,4.94e-06,0.0,0 STARLINK-3127,1 49450U 21104AU  23151.08614859  .00000494  00000-0  49134-4 0  9995,2 49450  53.2163  89.3718 0001199  95.5968 264.5161 15.08845556 86828,6917.863,95.437,540.558,538.899,0.0
49450.0,STARLINK-3127,PAYLOAD,2023-05-31 03:39:26,15.08848842,0.0001249,53.2166,89.0729,98.1527,261.9607,6.1773e-05,6.96e-06,0.0,0 STARLINK-3127,1 49450U 21104AU  23151.15238640  .00000696  00000-0  61773-4 0  9990,2 49450  53.2166  89.0729 0001249  98.1527 261.9607 15.08848842 86025,6917.853,95.437,540.582,538.854,0.0
49450.0,STARLINK-3127,PAYLOAD,2023-05-31 19:33:17,15.08842138,0.0001255,53.2165,86.1008,94.5486,265.565,0.0001533,2.153e-05,0.0,0 STARLINK-3127,1 49450U 21104AU  23151.81478869  .00002153  00000-0  15330-3 0  9999,2 49450  53.2165  86.1008 0001255  94.5486 265.5650 15.08842138 86124,6917.874,95.437,540.607,538.871,0.0
49450.0,STARLINK-3127,PAYLOAD,2023-06-01 05:05:36,15.08852622,0.0001262,53.2155,84.3154,94.4065,265.7071,0.00031363,4.709e-05,0.0,0 STARLINK-3127,1 49450U 21104AU  23152.21222498  .00004709  00000-0  31363-3 0  9992,2 49450  53.2155  84.3154 0001262  94.4065 265.7071 15.08852622 86189,6917.842,95.437,540.58,538.834,0.0
49450.0,STARLINK-3127,PAYLOAD,2023-06-02 01:45:37,15.08844571,0.0001221,53.2155,80.4505,84.4838,275.6294,9.9221e-05,1.292e-05,0.0,0 STARLINK-3127,1 49450U 21104AU  23153.07334976  .00001292  00000-0  99221-4 0  9994,2 49450  53.2155  80.4505 0001221  84.4838 275.6294 15.08844571 87124,6917.866,95.437,540.576,538.887,0.0
49450.0,STARLINK-3127,PAYLOAD,2023-06-02 04:56:23,15.08845856,0.0001233,53.2156,79.8554,85.1003,275.013,0.00012071,1.634e-05,0.0,0 STARLINK-3127,1 49450U 21104AU  23153.20582886  .00001634  00000-0  12071-3 0  9991,2 49450  53.2156  79.8554 0001233  85.1003 275.0130 15.08845856 86338,6917.862,95.437,540.58,538.875,0.0
49450.0,STARLINK-3127,PAYLOAD,2023-06-03 22:16:25,15.08840718,0.0001182,53.2156,72.1255,82.962,277.1506,0.00010492,1.382e-05,0.0,0 STARLINK-3127,1 49450U 21104AU  23154.92807335  .00001382  00000-0  10492-3 0  9995,2 49450  53.2156  72.1255 0001182  82.9620 277.1506 15.08840718 86595,6917.878,95.438,540.561,538.926,0.0
49450.0,STARLINK-3127,PAYLOAD,2023-06-04 01:27:11,15.08843442,0.0001189,53.2157,71.5302,83.8225,276.2903,0.00014026,1.945e-05,0.0,0 STARLINK-3127,1 49450U 21104AU  23155.06055192  .00001945  00000-0  14026-3 0  9999,2 49450  53.2157  71.5302 0001189  83.8225 276.2903 15.08843442 87421,6917.87,95.437,540.557,538.912,0.0
49450.0,STARLINK-3127,PAYLOAD,2023-06-04 14:10:17,15.08838402,0.000123,53.2158,69.1515,88.8543,271.259,0.00012021,1.626e-05,0.0,0 STARLINK-3127,1 49450U 21104AU  23155.59047478  .00001626  00000-0  12021-3 0  9994,2 49450  53.2158  69.1515 0001230  88.8543 271.2590 15.08838402 87502,6917.885,95.438,540.601,538.899,0.0
49450.0,STARLINK-3127,PAYLOAD,2023-06-04 22:07:12,15.08838147,0.0001223,53.2158,67.6648,90.423,269.6902,4.2603e-05,3.9e-06,0.0,0 STARLINK-3127,1 49450U 21104AU  23155.92167523  .00000390  00000-0  42603-4 0  9992,2 49450  53.2158  67.6648 0001223  90.4230 269.6902 15.08838147 86745,6917.886,95.438,540.597,538.905,0.0
49450.0,STARLINK-3127,PAYLOAD,2023-06-05 10:50:17,15.08838748,0.0001188,53.2156,65.2861,91.0605,269.0523,3.698e-05,3.01e-06,0.0,0 STARLINK-3127,1 49450U 21104AU  23156.45159498  .00000301  00000-0  36980-4 0  9996,2 49450  53.2156  65.2861 0001188  91.0605 269.0523 15.08838748 86826,6917.884,95.438,540.571,538.927,0.0
49450.0,STARLINK-3127,PAYLOAD,2023-06-05 20:22:36,15.08837603,0.0001219,53.2157,63.502,93.8112,266.302,7.7923e-06,-1.64e-06,0.0,0 STARLINK-3127,1 49450U 21104AU  23156.84903624 -.00000164  00000-0  77923-5 0  9998,2 49450  53.2157  63.5020 0001219  93.8112 266.3020 15.08837603 86880,6917.888,95.438,540.596,538.909,0.0
49450.0,STARLINK-3127,PAYLOAD,2023-06-06 01:08:45,15.08843563,0.0001204,53.2164,62.6097,93.9773,266.1357,0.00010159,1.329e-05,0.0,0 STARLINK-3127,1 49450U 21104AU  23157.04775435  .00001329  00000-0  10159-3 0  9997,2 49450  53.2164  62.6097 0001204  93.9773 266.1357 15.08843563 87727,6917.869,95.437,540.567,538.902,0.0
49450.0,STARLINK-3127,PAYLOAD,2023-06-06 02:44:08,15.08847368,0.0001223,53.2163,62.3126,96.0117,264.1015,0.00012534,1.708e-05,0.0,0 STARLINK-3127,1 49450U 21104AU  23157.11399133  .00001708  00000-0  12534-3 0  9992,2 49450  53.2163  62.3126 0001223  96.0117 264.1015 15.08847368 86920,6917.858,95.437,540.569,538.877,0.0
49450.0,STARLINK-3127,PAYLOAD,2023-06-07 02:34:56,15.08842525,0.0001247,53.2161,57.8518,96.2608,263.8526,8.2629e-05,1.027e-05,0.0,0 STARLINK-3127,1 49450U 21104AU  23158.10759545  .00001027  00000-0  82629-4 0  9996,2 49450  53.2161  57.8518 0001247  96.2608 263.8526 15.08842525 87884,6917.873,95.437,540.6,538.875,0.0
49450.0,STARLINK-3127,PAYLOAD,2023-06-07 16:53:25,15.08832503,0.0001257,53.2173,55.1734,96.9783,263.1352,2.8905e-05,1.72e-06,0.0,0 STARLINK-3127,1 49450U 21104AU  23158.70376282  .00000172  00000-0  28905-4 0  9992,2 49450  53.2173  55.1734 0001257  96.9783 263.1352 15.08832503 87975,6917.903,95.438,540.638,538.899,0.0
49450.0,STARLINK-3127,PAYLOAD,2023-06-07 21:39:34,15.08836996,0.0001395,53.2181,54.2799,91.5072,268.608,8.4651e-05,1.059e-05,0.0,0 STARLINK-3127,1 49450U 21104AU  23158.90248286  .00001059  00000-0  84651-4 0  9991,2 49450  53.2181  54.2799 0001395  91.5072 268.6080 15.08836996 87192,6917.89,95.438,540.72,538.79,0.0
49450.0,STARLINK-3127,PAYLOAD,2023-06-07 23:14:57,15.08837599,0.000136,53.218,53.983,95.3508,264.764,8.4014e-05,1.049e-05,0.0,0 STARLINK-3127,1 49450U 21104AU  23158.96872227  .00001049  00000-0  84014-4 0  9997,2 49450  53.2180  53.9830 0001360  95.3508 264.7640 15.08837599 87202,6917.888,95.438,540.694,538.812,0.0
49450.0,STARLINK-3127,PAYLOAD,2023-06-09 02:16:29,15.08851469,0.0001326,53.2177,48.9291,95.6485,264.4659,0.00016508,2.341e-05,0.0,0 STARLINK-3127,1 49450U 21104AU  23160.09479103  .00002341  00000-0  16508-3 0  9998,2 49450  53.2177  48.9291 0001326  95.6485 264.4659 15.08851469 88189,6917.845,95.437,540.628,538.793,0.0
49450.0,STARLINK-3127,PAYLOAD,2023-06-09 10:13:26,15.08846442,0.0001204,53.2169,47.4445,87.1472,272.9658,0.00010201,1.336e-05,0.0,0 STARLINK-3127,1 49450U 21104AU  23160.42599585  .00001336  00000-0  10201-3 0  9999,2 49450  53.2169  47.4445 0001204  87.1472 272.9658 15.08846442 88236,6917.861,95.437,540.559,538.893,0.0
49450.0,STARLINK-3127,PAYLOAD,2023-06-10 02:07:17,15.0884452,0.0001455,53.2164,44.4699,89.3805,270.7354,0.00012795,1.749e-05,0.0,0 STARLINK-3127,1 49450U 21104AU  23161.08839947  .00001749  00000-0  12795-3 0  9999,2 49450  53.2164  44.4699 0001455  89.3805 270.7354 15.08844520 88336,6917.867,95.437,540.738,538.725,0.0
49450.0,STARLINK-3127,PAYLOAD,2023-06-10 22:47:18,15.08845254,0.0001492,53.2161,40.6027,94.2793,265.837,5.4745e-05,5.84e-06,0.0,0 STARLINK-3127,1 49450U 21104AU  23161.94951829  .00000584  00000-0  54745-4 0  9996,2 49450  53.2161  40.6027 0001492  94.2793 265.8370 15.08845254 87650,6917.864,95.437,540.761,538.697,0.0
49450.0,STARLINK-3127,PAYLOAD,2023-06-11 08:19:37,15.08843156,0.0001383,53.2164,38.8184,88.7325,271.3825,1.7638e-05,-7e-08,0.0,0 STARLINK-3127,1 49450U 21104AU  23162.34695903 -.00000007  00000-0  17638-4 0  9990,2 49450  53.2164  38.8184 0001383  88.7325 271.3825 15.08843156 88527,6917.871,95.437,540.692,538.779,0.0
49450.0,STARLINK-3127,PAYLOAD,2023-06-11 22:38:05,15.08838638,0.000141,53.2162,36.1438,94.5907,265.5246,7.4935e-05,9.05e-06,0.0,0 STARLINK-3127,1 49450U 21104AU  23162.94312238  .00000905  00000-0  74935-4 0  9992,2 49450  53.2162  36.1438 0001410  94.5907 265.5246 15.08838638 87801,6917.885,95.438,540.725,538.774,0.0
49450.0,STARLINK-3127,PAYLOAD,2023-06-12 08:10:24,15.08838664,0.0001357,53.2166,34.3609,88.5486,271.5662,-4.6091e-06,-3.61e-06,0.0,0 STARLINK-3127,1 49450U 21104AU  23163.34056266 -.00000361  00000-0 -46091-5 0  9994,2 49450  53.2166  34.3609 0001357  88.5486 271.5662 15.08838664 88674,6917.884,95.438,540.688,538.811,0.0
49450.0,STARLINK-3127,PAYLOAD,2023-06-12 17:42:43,15.08835446,0.0001316,53.2168,32.5763,95.2047,264.9095,7.0096e-05,8.28e-06,0.0,0 STARLINK-3127,1 49450U 21104AU  23163.73800824  .00000828  00000-0  70096-4 0  9991,2 49450  53.2168  32.5763 0001316  95.2047 264.9095 15.08835446 87928,6917.894,95.438,540.67,538.849,0.0
